{"type": "FeatureCollection", "features": [ {"type": "Feature", "properties": {"norad_id": 64902, "name": "CO3D 2", "group": "resource", "lat": 68.13194859635188, "lon": 57.72628904716731, "alt_km": 498.10163886982446, "timestamp": "2025-12-26T15:29:39.096386+00:00", "meta": {"OBJECT_NAME": "CO3D 2", "OBJECT_ID": "2025-156D", "EPOCH": "2025-12-26T07:17:29.108832", "MEAN_MOTION": 15.20198684, "ECCENTRICITY": 7.794e-05, "INCLINATION": 97.434, "RA_OF_ASC_NODE": 76.3751, "ARG_OF_PERICENTER": 60.5448, "MEAN_ANOMALY": 299.5865, "EPHEMERIS_TYPE": 0, "CLASSIFICATION_TYPE": "U", "NORAD_CAT_ID": 64902, "ELEMENT_SET_NO": 999, "REV_AT_EPOCH": 2326, "BSTAR": 0.00014494844, "MEAN_MOTION_DOT": 3.071e-05, "MEAN_MOTION_DDOT": 0}, "tle": {"line1": "1 64902U 25156D   25360.30380913  .00003071  00000+0  14495-3 0  9999", "line2": "2 64902  97.4340  76.3751 0000779  60.5448 299.5865 15.20198684 23260"}}, "geometry": {"type": "Point", "coordinates": [57.72628904716731, 68.13194859635188]}}, {"type": "Feature", "properties": {"norad_id": 64903, "name": "CO3D 1", "group": "resource", "lat": 67.34783907658644, "lon": 58.479254020482365, "alt_km": 498.1131048711077, "timestamp": "2025-12-26T15:29:39.096396+00:00", "meta": {"OBJECT_NAME": "CO3D 1", "OBJECT_ID": "2025-156E", "EPOCH": "2025-12-26T07:17:42.253728", "MEAN_MOTION": 15.20196253, "ECCENTRICITY": 8.632e-05, "INCLINATION": 97.4339, "RA_OF_ASC_NODE": 76.3749, "ARG_OF_PERICENTER": 60.5946, "MEAN_ANOMALY": 299.5375, "EPHEMERIS_TYPE": 0, "CLASSIFICATION_TYPE": "U", "NORAD_CAT_ID": 64903, "ELEMENT_SET_NO": 999, "REV_AT_EPOCH": 2326, "BSTAR": 0.00029747972, "MEAN_MOTION_DOT": 6.377e-05, "MEAN_MOTION_DDOT": 0}, "tle": {"line1": "1 64903U 25156E   25360.30396127  .00006377  00000+0  29748-3 0  9993", "line2": "2 64903  97.4339  76.3749 0000863  60.5946 299.5375 15.20196253 23269"}}, "geometry": {"type": "Point", "coordinates": [58.479254020482365, 67.34783907658644]}}, {"type": "Feature", "properties": {"norad_id": 66514, "name": "SENTINEL-6B", "group": "resource", "lat": 39.4374352422078, "lon": -67.90005294912717, "alt_km": 1337.9528588734538, "timestamp": "2025-12-26T15:29:39.096406+00:00", "meta": {"OBJECT_NAME": "SENTINEL-6B", "OBJECT_ID": "2025-264A", "EPOCH": "2025-12-25T18:10:28.373376", "MEAN_MOTION": 12.80929561, "ECCENTRICITY": 0.00079022, "INCLINATION": 66.0399, "RA_OF_ASC_NODE": 135.3964, "ARG_OF_PERICENTER": 269.9783, "MEAN_ANOMALY": 90.0326, "EPHEMERIS_TYPE": 0, "CLASSIFICATION_TYPE": "U", "NORAD_CAT_ID": 66514, "ELEMENT_SET_NO": 999, "REV_AT_EPOCH": 495, "BSTAR": 6.3134768e-05, "MEAN_MOTION_DOT": -4.6e-07, "MEAN_MOTION_DDOT": 0}, "tle": {"line1": "1 66514U 25264A   25359.75727284 -.00000046  00000+0  63135-4 0  9999", "line2": "2 66514  66.0399 135.3964 0007902 269.9783  90.0326 12.80929561  4951"}}, "geometry": {"type": "Point", "coordinates": [-67.90005294912717, 39.4374352422078]}}]}